STARLINK-37493          
1 68910U 26097R   26168.50921500  .00011859  00000+0  36903-3 0  9990
2 68910  97.2849   3.9887 0001567  86.7429 273.3993 15.33449016  7532
STARLINK-37543          
1 68911U 26097S   26168.49561851  .00014464  00000+0  44929-3 0  9990
2 68911  97.2844   4.0068 0002241  97.9227 262.2270 15.33457949  7530
STARLINK-37477          
1 68912U 26097T   26168.48475140  .00014474  00000+0  44994-3 0  9998
2 68912  97.2848   4.0212 0002014  90.2946 269.8527 15.33434746  7536
STARLINK-37504          
1 68913U 26097U   26168.50105854  .00023956  00000+0  74185-3 0  9994
2 68913  97.2845   4.0001 0001963  76.3628 283.7833 15.33450999  7537
STARLINK-37540          
1 68914U 26097V   26168.49289913  .00013942  00000+0  43326-3 0  9999
2 68914  97.2845   4.0089 0002011 102.9797 257.1670 15.33453361  7532
STARLINK-37516          
1 68915U 26097W   26168.47115013  .00011042  00000+0  34377-3 0  9992
2 68915  97.2845   4.0412 0001789  93.0745 267.0703 15.33451690  7537
STARLINK-37507          
1 68916U 26097X   26168.47930440  .00014484  00000+0  44994-3 0  9991
2 68916  97.2847   4.0284 0002226 100.1832 259.9662 15.33456152  7533
STARLINK-37542          
1 68917U 26097Y   26168.47658487  .00015802  00000+0  49052-3 0  9995
2 68917  97.2841   4.0331 0002333 107.7779 252.3718 15.33459907  7533
STARLINK-37529          
1 68918U 26097Z   26168.46842861  .00016617  00000+0  51571-3 0  9990
2 68918  97.2846   4.0442 0001647  97.4944 262.6486 15.33455997  7539
STARLINK-37258          
1 68951U 26099A   26168.29047571  .00023053  00000+0  69042-3 0  9999
2 68951  53.1591 161.1341 0000645  90.5564 269.5512 15.34440492  7289
STARLINK-37308          
1 68952U 26099B   26168.28838823  .00028475  00000+0  85042-3 0  9998
2 68952  53.1594 161.1402 0001213  33.5291 326.5788 15.34410249  7283
STARLINK-37337          
1 68953U 26099C   26168.50003471  .00024130  00000+0  72340-3 0  9998
2 68953  53.1586 160.1314 0001192  86.1057  15.3705 15.34382757  5952
STARLINK-37301          
1 68954U 26099D   26168.15180494  .00015745  00000+0  47599-3 0  9991
2 68954  53.1593 161.7073 0001464  92.2594 267.8576 15.34411334  7266
STARLINK-36794          
1 68955U 26099E   26168.15390789  .00026942  00000+0  80542-3 0  9998
2 68955  53.1599 161.7069 0001143  89.8758 270.2376 15.34409065  7260
STARLINK-36760          
1 68956U 26099F   26168.14969978  .00015360  00000+0  46467-3 0  9990
2 68956  53.1589 161.6803 0001405  87.0080 273.1083 15.34408072  7268
STARLINK-37047          
1 68957U 26099G   26168.15169500  .00016361  00000+0  47869-3 0  9994
2 68957  53.1595 161.7099 0001676  65.5746 294.5432 15.35415216  7268
STARLINK-36242          
1 68958U 26099H   26168.14549060  .00013922  00000+0  42230-3 0  9994
2 68958  53.1591 161.6529 0001218  97.2004 262.9137 15.34407997  7260
STARLINK-37033          
1 68959U 26099J   26168.14338828  .00021718  00000+0  65186-3 0  9990
2 68959  53.1577 161.6557 0001202  89.9293 270.1848 15.34409193  7267
STARLINK-36978          
1 68960U 26099K   26168.46697135 -.00278726  00000+0 -84609-2 0  9991
2 68960  53.1597 160.1166 0001172  86.3040 273.8097 15.34717104  7314
STARLINK-36965          
1 68961U 26099L   26168.13918205  .00015148  00000+0  45852-3 0  9993
2 68961  53.1595 161.6305 0001933 127.0016 233.1163 15.34401240  7263
STARLINK-36765          
1 68962U 26099M   26168.13707938  .00013806  00000+0  41867-3 0  9994
2 68962  53.1593 161.5963 0002036  77.2828 282.8402 15.34424545  7263
STARLINK-36764          
1 68963U 26099N   26168.50003471  .00024903  00000+0  74599-3 0  9995
2 68963  53.1590 159.8768 0001103 113.6504 104.0229 15.34388505  6013
STARLINK-36731          
1 68964U 26099P   26168.13286659  .00014791  00000+0  44792-3 0  9992
2 68964  53.1581 161.5675 0001098  99.0641 261.0486 15.34407479  7262
STARLINK-36664          
1 68965U 26099Q   26168.13076222  .00020697  00000+0  62175-3 0  9993
2 68965  53.1581 161.5524 0001131  94.0706 266.0426 15.34413355  7260
STARLINK-36402          
1 68966U 26099R   26168.25890544  .00011157  00000+0  34108-3 0  9994
2 68966  53.1593 160.9389 0001327  87.5293 272.5862 15.34379906  7282
STARLINK-36671          
1 68967U 26099S   26168.29434536  .00011826  00000+0  37016-3 0  9998
2 68967  53.1621 160.4273 0001281 101.8883 258.2263 15.33563646  7298
STARLINK-36665          
1 68968U 26099T   26168.25472332  .00016778  00000+0  50652-3 0  9993
2 68968  53.1591 160.9055 0001395  82.5434 277.5727 15.34405027  7288
STARLINK-36303          
1 68969U 26099U   26168.29290100  .00014723  00000+0  45785-3 0  9998
2 68969  53.1596 160.4224 0002632  56.1070 304.0182 15.33566159  7290
STARLINK-37257          
1 68970U 26099V   26168.12271414  .00025476  00000+0  73798-3 0  9991
2 68970  53.1597 161.5069 0001441 101.2152 258.9013 15.35433041  7264
STARLINK-37367          
1 68971U 26099W   26168.24841363  .00029644  00000+0  88459-3 0  9992
2 68971  53.1599 160.8763 0001635  86.3661 273.7529 15.34415367  7282
