OBJECT_NAME,OBJECT_ID,EPOCH,MEAN_MOTION,ECCENTRICITY,INCLINATION,RA_OF_ASC_NODE,ARG_OF_PERICENTER,MEAN_ANOMALY,EPHEMERIS_TYPE,CLASSIFICATION_TYPE,NORAD_CAT_ID,ELEMENT_SET_NO,REV_AT_EPOCH,BSTAR,MEAN_MOTION_DOT,MEAN_MOTION_DDOT
STARLINK-37493,2026-097R,2026-06-17T12:13:16.176000,15.33449016,.0001567,97.2849,3.9887,86.7429,273.3993,0,U,68910,999,753,.36903E-3,.11859E-3,0
STARLINK-37543,2026-097S,2026-06-17T11:53:41.439264,15.33457949,.0002241,97.2844,4.0068,97.9227,262.2270,0,U,68911,999,753,.44929E-3,.14464E-3,0
STARLINK-37477,2026-097T,2026-06-17T11:38:02.520960,15.33434746,.0002014,97.2848,4.0212,90.2946,269.8527,0,U,68912,999,753,.44994E-3,.14474E-3,0
STARLINK-37504,2026-097U,2026-06-17T12:01:31.457856,15.33450999,.0001963,97.2845,4.0001,76.3628,283.7833,0,U,68913,999,753,.74185E-3,.23956E-3,0
STARLINK-37540,2026-097V,2026-06-17T11:49:46.484832,15.33453361,.0002011,97.2845,4.0089,102.9797,257.1670,0,U,68914,999,753,.43326E-3,.13942E-3,0
STARLINK-37516,2026-097W,2026-06-17T11:18:27.371232,15.33451690,.0001789,97.2845,4.0412,93.0745,267.0703,0,U,68915,999,753,.34377E-3,.11042E-3,0
STARLINK-37507,2026-097X,2026-06-17T11:30:11.900160,15.33456152,.0002226,97.2847,4.0284,100.1832,259.9662,0,U,68916,999,753,.44994E-3,.14484E-3,0
STARLINK-37542,2026-097Y,2026-06-17T11:26:16.932768,15.33459907,.0002333,97.2841,4.0331,107.7779,252.3718,0,U,68917,999,753,.49052E-3,.15802E-3,0
STARLINK-37529,2026-097Z,2026-06-17T11:14:32.231904,15.33455997,.0001647,97.2846,4.0442,97.4944,262.6486,0,U,68918,999,753,.51571E-3,.16617E-3,0
STARLINK-37258,2026-099A,2026-06-17T06:58:17.101344,15.34440492,.0000645,53.1591,161.1341,90.5564,269.5512,0,U,68951,999,728,.69042E-3,.23053E-3,0
STARLINK-37308,2026-099B,2026-06-17T06:55:16.743072,15.34410249,.0001213,53.1594,161.1402,33.5291,326.5788,0,U,68952,999,728,.85042E-3,.28475E-3,0
STARLINK-37337,2026-099C,2026-06-17T12:00:02.998944,15.34382757,.0001192,53.1586,160.1314,86.1057,15.3705,0,U,68953,999,595,.7234E-3,.2413E-3,0
STARLINK-37301,2026-099D,2026-06-17T03:38:35.946816,15.34411334,.0001464,53.1593,161.7073,92.2594,267.8576,0,U,68954,999,726,.47599E-3,.15745E-3,0
STARLINK-36794,2026-099E,2026-06-17T03:41:37.641696,15.34409065,.0001143,53.1599,161.7069,89.8758,270.2376,0,U,68955,999,726,.80542E-3,.26942E-3,0
STARLINK-36760,2026-099F,2026-06-17T03:35:34.060992,15.34408072,.0001405,53.1589,161.6803,87.0080,273.1083,0,U,68956,999,726,.46467E-3,.1536E-3,0
STARLINK-37047,2026-099G,2026-06-17T03:38:26.448000,15.35415216,.0001676,53.1595,161.7099,65.5746,294.5432,0,U,68957,999,726,.47869E-3,.16361E-3,0
STARLINK-36242,2026-099H,2026-06-17T03:29:30.387840,15.34407997,.0001218,53.1591,161.6529,97.2004,262.9137,0,U,68958,999,726,.4223E-3,.13922E-3,0
STARLINK-37033,2026-099J,2026-06-17T03:26:28.747392,15.34409193,.0001202,53.1577,161.6557,89.9293,270.1848,0,U,68959,999,726,.65186E-3,.21718E-3,0
STARLINK-36978,2026-099K,2026-06-17T11:12:26.324640,15.34717104,.0001172,53.1597,160.1166,86.3040,273.8097,0,U,68960,999,731,-.84609E-2,-.278726E-2,0
STARLINK-36965,2026-099L,2026-06-17T03:20:25.329120,15.34401240,.0001933,53.1595,161.6305,127.0016,233.1163,0,U,68961,999,726,.45852E-3,.15148E-3,0
STARLINK-36765,2026-099M,2026-06-17T03:17:23.658432,15.34424545,.0002036,53.1593,161.5963,77.2828,282.8402,0,U,68962,999,726,.41867E-3,.13806E-3,0
STARLINK-36764,2026-099N,2026-06-17T12:00:02.998944,15.34388505,.0001103,53.1590,159.8768,113.6504,104.0229,0,U,68963,999,601,.74599E-3,.24903E-3,0
STARLINK-36731,2026-099P,2026-06-17T03:11:19.673376,15.34407479,.0001098,53.1581,161.5675,99.0641,261.0486,0,U,68964,999,726,.44792E-3,.14791E-3,0
STARLINK-36664,2026-099Q,2026-06-17T03:08:17.855808,15.34413355,.0001131,53.1581,161.5524,94.0706,266.0426,0,U,68965,999,726,.62175E-3,.20697E-3,0
STARLINK-36402,2026-099R,2026-06-17T06:12:49.430016,15.34379906,.0001327,53.1593,160.9389,87.5293,272.5862,0,U,68966,999,728,.34108E-3,.11157E-3,0
STARLINK-36671,2026-099S,2026-06-17T07:03:51.439104,15.33563646,.0001281,53.1621,160.4273,101.8883,258.2263,0,U,68967,999,729,.37016E-3,.11826E-3,0
STARLINK-36665,2026-099T,2026-06-17T06:06:48.094848,15.34405027,.0001395,53.1591,160.9055,82.5434,277.5727,0,U,68968,999,728,.50652E-3,.16778E-3,0
STARLINK-36303,2026-099U,2026-06-17T07:01:46.646400,15.33566159,.0002632,53.1596,160.4224,56.1070,304.0182,0,U,68969,999,729,.45785E-3,.14723E-3,0
STARLINK-37257,2026-099V,2026-06-17T02:56:42.501696,15.35433041,.0001441,53.1597,161.5069,101.2152,258.9013,0,U,68970,999,726,.73798E-3,.25476E-3,0
STARLINK-37367,2026-099W,2026-06-17T05:57:42.937632,15.34415367,.0001635,53.1599,160.8763,86.3661,273.7529,0,U,68971,999,728,.88459E-3,.29644E-3,0
